[{"OBJECT_NAME":"STARLINK-33874","OBJECT_ID":"2025-092X","EPOCH":"2026-03-14T22:03:22.798368","MEAN_MOTION":15.27593438,"ECCENTRICITY":0.00017423,"INCLINATION":42.9999,"RA_OF_ASC_NODE":143.0756,"ARG_OF_PERICENTER":243.9125,"MEAN_ANOMALY":116.1547,"EPHEMERIS_TYPE":0,"CLASSIFICATION_TYPE":"U","NORAD_CAT_ID":63825,"ELEMENT_SET_NO":999,"REV_AT_EPOCH":4946,"BSTAR":0.00059026389,"MEAN_MOTION_DOT":0.00016023,"MEAN_MOTION_DDOT":0},{"OBJECT_NAME":"STARLINK-33781","OBJECT_ID":"2025-092Y","EPOCH":"2026-03-14T11:30:11.070720","MEAN_MOTION":15.27597181,"ECCENTRICITY":0.00012263,"INCLINATION":42.9973,"RA_OF_ASC_NODE":145.7899,"ARG_OF_PERICENTER":253.1376,"MEAN_ANOMALY":106.9342,"EPHEMERIS_TYPE":0,"CLASSIFICATION_TYPE":"U","NORAD_CAT_ID":63826,"ELEMENT_SET_NO":999,"REV_AT_EPOCH":4939,"BSTAR":0.001342249,"MEAN_MOTION_DOT":0.00036878,"MEAN_MOTION_DDOT":0},{"OBJECT_NAME":"STARLINK-33891","OBJECT_ID":"2025-092Z","EPOCH":"2026-03-14T21:04:22.944576","MEAN_MOTION":15.27581627,"ECCENTRICITY":0.00010189,"INCLINATION":42.9977,"RA_OF_ASC_NODE":143.6226,"ARG_OF_PERICENTER":276.8969,"MEAN_ANOMALY":83.1766,"EPHEMERIS_TYPE":0,"CLASSIFICATION_TYPE":"U","NORAD_CAT_ID":63827,"ELEMENT_SET_NO":999,"REV_AT_EPOCH":4934,"BSTAR":0.0011050026,"MEAN_MOTION_DOT":0.00030272,"MEAN_MOTION_DDOT":0},{"OBJECT_NAME":"STARLINK-33903","OBJECT_ID":"2025-092AA","EPOCH":"2026-03-14T21:55:58.479456","MEAN_MOTION":15.27597695,"ECCENTRICITY":6.109e-5,"INCLINATION":43.0076,"RA_OF_ASC_NODE":143.0309,"ARG_OF_PERICENTER":282.3958,"MEAN_ANOMALY":77.6826,"EPHEMERIS_TYPE":0,"CLASSIFICATION_TYPE":"U","NORAD_CAT_ID":63828,"ELEMENT_SET_NO":999,"REV_AT_EPOCH":4946,"BSTAR":0.00080652477,"MEAN_MOTION_DOT":0.0002201,"MEAN_MOTION_DDOT":0},{"OBJECT_NAME":"STARLINK-33889","OBJECT_ID":"2025-092AB","EPOCH":"2026-03-14T13:44:50.327808","MEAN_MOTION":15.27609341,"ECCENTRICITY":0.00013773,"INCLINATION":43.0008,"RA_OF_ASC_NODE":144.7862,"ARG_OF_PERICENTER":274.5085,"MEAN_ANOMALY":85.5609,"EPHEMERIS_TYPE":0,"CLASSIFICATION_TYPE":"U","NORAD_CAT_ID":63829,"ELEMENT_SET_NO":999,"REV_AT_EPOCH":4930,"BSTAR":0.0010001983,"MEAN_MOTION_DOT":0.00027388,"MEAN_MOTION_DDOT":0},{"OBJECT_NAME":"STARLINK-33984","OBJECT_ID":"2025-092AC","EPOCH":"2026-03-14T21:46:44.047200","MEAN_MOTION":15.2756262,"ECCENTRICITY":9.54e-5,"INCLINATION":42.999,"RA_OF_ASC_NODE":142.981,"ARG_OF_PERICENTER":79.8196,"MEAN_ANOMALY":280.2763,"EPHEMERIS_TYPE":0,"CLASSIFICATION_TYPE":"U","NORAD_CAT_ID":63830,"ELEMENT_SET_NO":999,"REV_AT_EPOCH":4941,"BSTAR":0.00080394553,"MEAN_MOTION_DOT":0.00021915,"MEAN_MOTION_DDOT":0},{"OBJECT_NAME":"STARLINK-33940","OBJECT_ID":"2025-092AD","EPOCH":"2026-03-14T22:01:31.205856","MEAN_MOTION":15.2759866,"ECCENTRICITY":0.00014939,"INCLINATION":43.0015,"RA_OF_ASC_NODE":143.0666,"ARG_OF_PERICENTER":260.5075,"MEAN_ANOMALY":99.5608,"EPHEMERIS_TYPE":0,"CLASSIFICATION_TYPE":"U","NORAD_CAT_ID":63831,"ELEMENT_SET_NO":999,"REV_AT_EPOCH":4946,"BSTAR":0.0013764429,"MEAN_MOTION_DOT":0.00037831,"MEAN_MOTION_DDOT":0},{"OBJECT_NAME":"STARLINK-33978","OBJECT_ID":"2025-092AE","EPOCH":"2026-03-14T21:39:19.243584","MEAN_MOTION":15.27583587,"ECCENTRICITY":0.0001011,"INCLINATION":43.002,"RA_OF_ASC_NODE":142.9581,"ARG_OF_PERICENTER":276.6639,"MEAN_ANOMALY":83.4098,"EPHEMERIS_TYPE":0,"CLASSIFICATION_TYPE":"U","NORAD_CAT_ID":63832,"ELEMENT_SET_NO":999,"REV_AT_EPOCH":4946,"BSTAR":0.00082368398,"MEAN_MOTION_DOT":0.00022475,"MEAN_MOTION_DDOT":0},{"OBJECT_NAME":"STARLINK-34018","OBJECT_ID":"2025-093A","EPOCH":"2026-03-15T04:49:53.296320","MEAN_MOTION":15.27617482,"ECCENTRICITY":4.841e-5,"INCLINATION":43,"RA_OF_ASC_NODE":46.9041,"ARG_OF_PERICENTER":243.7007,"MEAN_ANOMALY":116.3795,"EPHEMERIS_TYPE":0,"CLASSIFICATION_TYPE":"U","NORAD_CAT_ID":63836,"ELEMENT_SET_NO":999,"REV_AT_EPOCH":4881,"BSTAR":0.0011830775,"MEAN_MOTION_DOT":0.00032474,"MEAN_MOTION_DDOT":0},{"OBJECT_NAME":"STARLINK-34053","OBJECT_ID":"2025-093B","EPOCH":"2026-03-15T04:46:11.203392","MEAN_MOTION":15.27599236,"ECCENTRICITY":0.00013647,"INCLINATION":43.0022,"RA_OF_ASC_NODE":46.8798,"ARG_OF_PERICENTER":259.435,"MEAN_ANOMALY":100.6348,"EPHEMERIS_TYPE":0,"CLASSIFICATION_TYPE":"U","NORAD_CAT_ID":63837,"ELEMENT_SET_NO":999,"REV_AT_EPOCH":4875,"BSTAR":0.00086115092,"MEAN_MOTION_DOT":0.00023524,"MEAN_MOTION_DDOT":0},{"OBJECT_NAME":"STARLINK-34042","OBJECT_ID":"2025-093C","EPOCH":"2026-03-13T23:40:15.734208","MEAN_MOTION":15.27599597,"ECCENTRICITY":9.131e-5,"INCLINATION":43.0026,"RA_OF_ASC_NODE":49.7992,"ARG_OF_PERICENTER":280.5774,"MEAN_ANOMALY":79.4975,"EPHEMERIS_TYPE":0,"CLASSIFICATION_TYPE":"U","NORAD_CAT_ID":63838,"ELEMENT_SET_NO":999,"REV_AT_EPOCH":4867,"BSTAR":0.00091601364,"MEAN_MOTION_DOT":0.00025045,"MEAN_MOTION_DDOT":0},{"OBJECT_NAME":"STARLINK-34040","OBJECT_ID":"2025-093D","EPOCH":"2026-03-15T04:27:40.887360","MEAN_MOTION":15.27597216,"ECCENTRICITY":9.704e-5,"INCLINATION":43.0042,"RA_OF_ASC_NODE":46.7868,"ARG_OF_PERICENTER":252.4747,"MEAN_ANOMALY":107.5999,"EPHEMERIS_TYPE":0,"CLASSIFICATION_TYPE":"U","NORAD_CAT_ID":63839,"ELEMENT_SET_NO":999,"REV_AT_EPOCH":4881,"BSTAR":0.0011759234,"MEAN_MOTION_DOT":0.00032255,"MEAN_MOTION_DDOT":0},{"OBJECT_NAME":"STARLINK-33990","OBJECT_ID":"2025-093E","EPOCH":"2026-03-15T04:31:22.684800","MEAN_MOTION":15.27597247,"ECCENTRICITY":0.00012186,"INCLINATION":43.0031,"RA_OF_ASC_NODE":46.7931,"ARG_OF_PERICENTER":257.9602,"MEAN_ANOMALY":102.1113,"EPHEMERIS_TYPE":0,"CLASSIFICATION_TYPE":"U","NORAD_CAT_ID":63840,"ELEMENT_SET_NO":999,"REV_AT_EPOCH":4859,"BSTAR":0.0011067413,"MEAN_MOTION_DOT":0.00030334,"MEAN_MOTION_DDOT":0},{"OBJECT_NAME":"STARLINK-34056","OBJECT_ID":"2025-093F","EPOCH":"2026-03-15T04:59:08.173536","MEAN_MOTION":15.2759847,"ECCENTRICITY":0.00012883,"INCLINATION":43.001,"RA_OF_ASC_NODE":46.9559,"ARG_OF_PERICENTER":268.5623,"MEAN_ANOMALY":91.5082,"EPHEMERIS_TYPE":0,"CLASSIFICATION_TYPE":"U","NORAD_CAT_ID":63841,"ELEMENT_SET_NO":999,"REV_AT_EPOCH":4859,"BSTAR":0.00088457135,"MEAN_MOTION_DOT":0.00024173,"MEAN_MOTION_DDOT":0},{"OBJECT_NAME":"STARLINK-34026","OBJECT_ID":"2025-093G","EPOCH":"2026-03-15T05:00:59.720256","MEAN_MOTION":15.27625668,"ECCENTRICITY":9.234e-5,"INCLINATION":42.9967,"RA_OF_ASC_NODE":46.9602,"ARG_OF_PERICENTER":213.1131,"MEAN_ANOMALY":146.9663,"EPHEMERIS_TYPE":0,"CLASSIFICATION_TYPE":"U","NORAD_CAT_ID":63842,"ELEMENT_SET_NO":999,"REV_AT_EPOCH":4859,"BSTAR":0.00094709522,"MEAN_MOTION_DOT":0.00025928,"MEAN_MOTION_DDOT":0},{"OBJECT_NAME":"STARLINK-33777","OBJECT_ID":"2025-093H","EPOCH":"2026-03-14T23:24:51.599808","MEAN_MOTION":15.27602481,"ECCENTRICITY":0.00017071,"INCLINATION":43.0033,"RA_OF_ASC_NODE":47.7863,"ARG_OF_PERICENTER":291.2425,"MEAN_ANOMALY":68.8245,"EPHEMERIS_TYPE":0,"CLASSIFICATION_TYPE":"U","NORAD_CAT_ID":63843,"ELEMENT_SET_NO":999,"REV_AT_EPOCH":4878,"BSTAR":0.00058856477,"MEAN_MOTION_DOT":0.0001598,"MEAN_MOTION_DDOT":0}]
