STARLINK-33874          
1 63825U 25092X   26073.91901387  .00016023  00000+0  59026-3 0  9994
2 63825  42.9999 143.0756 0001742 243.9125 116.1547 15.27593438 49469
STARLINK-33781          
1 63826U 25092Y   26073.47929480  .00036878  00000+0  13422-2 0  9999
2 63826  42.9973 145.7899 0001226 253.1376 106.9342 15.27597181 49398
STARLINK-33891          
1 63827U 25092Z   26073.87804334  .00030272  00000+0  11050-2 0  9991
2 63827  42.9977 143.6226 0001018 276.8969  83.1766 15.27581627 49342
STARLINK-33903          
1 63828U 25092AA  26073.91387129  .00022010  00000+0  80652-3 0  9991
2 63828  43.0076 143.0309 0000610 282.3958  77.6826 15.27597695 49468
STARLINK-33889          
1 63829U 25092AB  26073.57280472  .00027388  00000+0  10002-2 0  9991
2 63829  43.0008 144.7862 0001377 274.5085  85.5609 15.27609341 49303
STARLINK-33984          
1 63830U 25092AC  26073.90745425  .00021915  00000+0  80395-3 0  9997
2 63830  42.9990 142.9810 0000954  79.8196 280.2763 15.27562620 49410
STARLINK-33940          
1 63831U 25092AD  26073.91772229  .00037831  00000+0  13764-2 0  9990
2 63831  43.0015 143.0666 0001493 260.5075  99.5608 15.27598660 49463
STARLINK-33978          
1 63832U 25092AE  26073.90230606  .00022475  00000+0  82368-3 0  9993
2 63832  43.0020 142.9581 0001011 276.6639  83.4098 15.27583587 49461
STARLINK-34018          
1 63836U 25093A   26074.20131130  .00032474  00000+0  11831-2 0  9990
2 63836  43.0000  46.9041 0000484 243.7007 116.3795 15.27617482 48814
STARLINK-34053          
1 63837U 25093B   26074.19874078  .00023524  00000+0  86115-3 0  9998
2 63837  43.0022  46.8798 0001364 259.4350 100.6348 15.27599236 48759
STARLINK-34042          
1 63838U 25093C   26072.98629322  .00025045  00000+0  91601-3 0  9990
2 63838  43.0026  49.7992 0000913 280.5774  79.4975 15.27599597 48676
STARLINK-34040          
1 63839U 25093D   26074.18588990  .00032255  00000+0  11759-2 0  9996
2 63839  43.0042  46.7868 0000970 252.4747 107.5999 15.27597216 48816
STARLINK-33990          
1 63840U 25093E   26074.18845700  .00030334  00000+0  11067-2 0  9991
2 63840  43.0031  46.7931 0001218 257.9602 102.1113 15.27597247 48591
STARLINK-34056          
1 63841U 25093F   26074.20773349  .00024173  00000+0  88457-3 0  9996
2 63841  43.0010  46.9559 0001288 268.5623  91.5082 15.27598470 48590
STARLINK-34026          
1 63842U 25093G   26074.20902454  .00025928  00000+0  94710-3 0  9996
2 63842  42.9967  46.9602 0000923 213.1131 146.9663 15.27625668 48594
STARLINK-33777          
1 63843U 25093H   26073.97559722  .00015980  00000+0  58856-3 0  9994
2 63843  43.0033  47.7863 0001707 291.2425  68.8245 15.27602481 48780
